CCSDS_OMM_VERS = 2.0
CREATION_DATE  = 
ORIGINATOR     = 

OBJECT_NAME    = STARLINK-36566
OBJECT_ID      = 2026-014V
CENTER_NAME    = EARTH
REF_FRAME      = TEME
TIME_SYSTEM    = UTC
MEAN_ELEMENT_THEORY = SGP/SGP4

EPOCH          = 2026-01-27T14:00:04.000032
MEAN_MOTION    = 16.03906342
ECCENTRICITY   = .0001062
INCLINATION    = 97.2809
RA_OF_ASC_NODE = 270.2261
ARG_OF_PERICENTER = 73.4366
MEAN_ANOMALY   = 348.7989

EPHEMERIS_TYPE = 0
CLASSIFICATION_TYPE = U
NORAD_CAT_ID   = 67551
ELEMENT_SET_NO = 999
REV_AT_EPOCH   = 208
BSTAR          = -.18209E-2
MEAN_MOTION_DOT = -.1152033E-1
MEAN_MOTION_DDOT = .44554E-3

CCSDS_OMM_VERS = 2.0
CREATION_DATE  = 
ORIGINATOR     = 

OBJECT_NAME    = STARLINK-36567
OBJECT_ID      = 2026-014W
CENTER_NAME    = EARTH
REF_FRAME      = TEME
TIME_SYSTEM    = UTC
MEAN_ELEMENT_THEORY = SGP/SGP4

EPOCH          = 2026-01-27T14:00:04.000032
MEAN_MOTION    = 16.04039466
ECCENTRICITY   = .0001171
INCLINATION    = 97.2808
RA_OF_ASC_NODE = 270.2268
ARG_OF_PERICENTER = 90.6488
MEAN_ANOMALY   = 333.0254

EPHEMERIS_TYPE = 0
CLASSIFICATION_TYPE = U
NORAD_CAT_ID   = 67552
ELEMENT_SET_NO = 999
REV_AT_EPOCH   = 208
BSTAR          = -.18034E-2
MEAN_MOTION_DOT = -.1150075E-1
MEAN_MOTION_DDOT = .44484E-3

CCSDS_OMM_VERS = 2.0
CREATION_DATE  = 
ORIGINATOR     = 

OBJECT_NAME    = STARLINK-36569
OBJECT_ID      = 2026-014X
CENTER_NAME    = EARTH
REF_FRAME      = TEME
TIME_SYSTEM    = UTC
MEAN_ELEMENT_THEORY = SGP/SGP4

EPOCH          = 2026-01-27T14:00:04.000032
MEAN_MOTION    = 16.04212108
ECCENTRICITY   = .0001101
INCLINATION    = 97.2808
RA_OF_ASC_NODE = 270.2275
ARG_OF_PERICENTER = 73.5728
MEAN_ANOMALY   = 351.8823

EPHEMERIS_TYPE = 0
CLASSIFICATION_TYPE = U
NORAD_CAT_ID   = 67553
ELEMENT_SET_NO = 999
REV_AT_EPOCH   = 208
BSTAR          = -.17766E-2
MEAN_MOTION_DOT = -.1144768E-1
MEAN_MOTION_DDOT = .44196E-3

CCSDS_OMM_VERS = 2.0
CREATION_DATE  = 
ORIGINATOR     = 

OBJECT_NAME    = STARLINK-36395
OBJECT_ID      = 2026-014Y
CENTER_NAME    = EARTH
REF_FRAME      = TEME
TIME_SYSTEM    = UTC
MEAN_ELEMENT_THEORY = SGP/SGP4

EPOCH          = 2026-01-27T14:00:04.000032
MEAN_MOTION    = 16.04664593
ECCENTRICITY   = .000112
INCLINATION    = 97.2808
RA_OF_ASC_NODE = 270.2298
ARG_OF_PERICENTER = 81.7638
MEAN_ANOMALY   = 348.5094

EPHEMERIS_TYPE = 0
CLASSIFICATION_TYPE = U
NORAD_CAT_ID   = 67554
ELEMENT_SET_NO = 999
REV_AT_EPOCH   = 208
BSTAR          = -.16994E-2
MEAN_MOTION_DOT = -.1125314E-1
MEAN_MOTION_DDOT = .43049E-3

CCSDS_OMM_VERS = 2.0
CREATION_DATE  = 
ORIGINATOR     = 

OBJECT_NAME    = STARLINK-36559
OBJECT_ID      = 2026-014Z
CENTER_NAME    = EARTH
REF_FRAME      = TEME
TIME_SYSTEM    = UTC
MEAN_ELEMENT_THEORY = SGP/SGP4

EPOCH          = 2026-01-27T14:00:04.000032
MEAN_MOTION    = 16.04528708
ECCENTRICITY   = .0001077
INCLINATION    = 97.2809
RA_OF_ASC_NODE = 270.2291
ARG_OF_PERICENTER = 76.7559
MEAN_ANOMALY   = 352.0203

EPHEMERIS_TYPE = 0
CLASSIFICATION_TYPE = U
NORAD_CAT_ID   = 67555
ELEMENT_SET_NO = 999
REV_AT_EPOCH   = 208
BSTAR          = -.17226E-2
MEAN_MOTION_DOT = -.1131347E-1
MEAN_MOTION_DDOT = .43406E-3

CCSDS_OMM_VERS = 2.0
CREATION_DATE  = 
ORIGINATOR     = 

OBJECT_NAME    = 2026-015A
OBJECT_ID      = 2026-015A
CENTER_NAME    = EARTH
REF_FRAME      = TEME
TIME_SYSTEM    = UTC
MEAN_ELEMENT_THEORY = SGP/SGP4

EPOCH          = 2026-01-27T12:15:36.054144
MEAN_MOTION    = 13.52685164
ECCENTRICITY   = .00047834
INCLINATION    = 88.9998
RA_OF_ASC_NODE = 282.8443
ARG_OF_PERICENTER = 112.5853
MEAN_ANOMALY   = 247.5806

EPHEMERIS_TYPE = 0
CLASSIFICATION_TYPE = U
NORAD_CAT_ID   = 67556
ELEMENT_SET_NO = 999
REV_AT_EPOCH   = 69
BSTAR          = .32659283E-3
MEAN_MOTION_DOT = .229E-5
MEAN_MOTION_DDOT = 0

CCSDS_OMM_VERS = 2.0
CREATION_DATE  = 
ORIGINATOR     = 

OBJECT_NAME    = 2026-015B
OBJECT_ID      = 2026-015B
CENTER_NAME    = EARTH
REF_FRAME      = TEME
TIME_SYSTEM    = UTC
MEAN_ELEMENT_THEORY = SGP/SGP4

EPOCH          = 2026-01-27T15:48:46.243584
MEAN_MOTION    = 13.52660343
ECCENTRICITY   = .0004901
INCLINATION    = 88.9997
RA_OF_ASC_NODE = 282.8297
ARG_OF_PERICENTER = 111.4214
MEAN_ANOMALY   = 248.7462

EPHEMERIS_TYPE = 0
CLASSIFICATION_TYPE = U
NORAD_CAT_ID   = 67557
ELEMENT_SET_NO = 999
REV_AT_EPOCH   = 71
BSTAR          = .12786E-3
MEAN_MOTION_DOT = .97E-6
MEAN_MOTION_DDOT = 0

CCSDS_OMM_VERS = 2.0
CREATION_DATE  = 
ORIGINATOR     = 

OBJECT_NAME    = ELECTRON R/B
OBJECT_ID      = 2026-015C
CENTER_NAME    = EARTH
REF_FRAME      = TEME
TIME_SYSTEM    = UTC
MEAN_ELEMENT_THEORY = SGP/SGP4

EPOCH          = 2026-01-27T16:13:22.070496
MEAN_MOTION    = 14.87963842
ECCENTRICITY   = .06112103
INCLINATION    = 89.0044
RA_OF_ASC_NODE = 282.6823
ARG_OF_PERICENTER = 251.4540
MEAN_ANOMALY   = 101.9381

EPHEMERIS_TYPE = 0
CLASSIFICATION_TYPE = U
NORAD_CAT_ID   = 67558
ELEMENT_SET_NO = 999
REV_AT_EPOCH   = 78
BSTAR          = .99247874E-3
MEAN_MOTION_DOT = .817882E-2
MEAN_MOTION_DDOT = -.445796E-6

CCSDS_OMM_VERS = 2.0
CREATION_DATE  = 
ORIGINATOR     = 

OBJECT_NAME    = ELECTRON KICK STAGE R/B
OBJECT_ID      = 2026-015D
CENTER_NAME    = EARTH
REF_FRAME      = TEME
TIME_SYSTEM    = UTC
MEAN_ELEMENT_THEORY = SGP/SGP4

EPOCH          = 2026-01-27T14:30:10.810656
MEAN_MOTION    = 14.65740459
ECCENTRICITY   = .0539154
INCLINATION    = 89.0539
RA_OF_ASC_NODE = 282.7357
ARG_OF_PERICENTER = 317.8373
MEAN_ANOMALY   = 38.2522

EPHEMERIS_TYPE = 0
CLASSIFICATION_TYPE = U
NORAD_CAT_ID   = 67559
ELEMENT_SET_NO = 999
REV_AT_EPOCH   = 76
BSTAR          = .13484E-2
MEAN_MOTION_DOT = .79144E-3
MEAN_MOTION_DDOT = .42096E-6

CCSDS_OMM_VERS = 2.0
CREATION_DATE  = 
ORIGINATOR     = 

OBJECT_NAME    = STARLINK-36426
OBJECT_ID      = 2026-014AA
CENTER_NAME    = EARTH
REF_FRAME      = TEME
TIME_SYSTEM    = UTC
MEAN_ELEMENT_THEORY = SGP/SGP4

EPOCH          = 2026-01-27T14:00:04.000032
MEAN_MOTION    = 16.04339818
ECCENTRICITY   = .0001173
INCLINATION    = 97.2806
RA_OF_ASC_NODE = 270.2281
ARG_OF_PERICENTER = 81.1243
MEAN_ANOMALY   = 345.7526

EPHEMERIS_TYPE = 0
CLASSIFICATION_TYPE = U
NORAD_CAT_ID   = 67560
ELEMENT_SET_NO = 999
REV_AT_EPOCH   = 208
BSTAR          = -.17536E-2
MEAN_MOTION_DOT = -.1138703E-1
MEAN_MOTION_DDOT = .4383E-3

CCSDS_OMM_VERS = 2.0
CREATION_DATE  = 
ORIGINATOR     = 

OBJECT_NAME    = CZ-2C DEB
OBJECT_ID      = 2026-009C
CENTER_NAME    = EARTH
REF_FRAME      = TEME
TIME_SYSTEM    = UTC
MEAN_ELEMENT_THEORY = SGP/SGP4

EPOCH          = 2026-01-27T16:11:28.629024
MEAN_MOTION    = 15.10438808
ECCENTRICITY   = .0116751
INCLINATION    = 97.2318
RA_OF_ASC_NODE = 101.8078
ARG_OF_PERICENTER = 181.6214
MEAN_ANOMALY   = 178.4655

EPHEMERIS_TYPE = 0
CLASSIFICATION_TYPE = U
NORAD_CAT_ID   = 67586
ELEMENT_SET_NO = 999
REV_AT_EPOCH   = 188
BSTAR          = .10752E-2
MEAN_MOTION_DOT = .20786E-3
MEAN_MOTION_DDOT = 0

CCSDS_OMM_VERS = 2.0
CREATION_DATE  = 
ORIGINATOR     = 

OBJECT_NAME    = CZ-2C DEB
OBJECT_ID      = 2026-009D
CENTER_NAME    = EARTH
REF_FRAME      = TEME
TIME_SYSTEM    = UTC
MEAN_ELEMENT_THEORY = SGP/SGP4

EPOCH          = 2026-01-27T15:48:45.877248
MEAN_MOTION    = 15.12340989
ECCENTRICITY   = .0111811
INCLINATION    = 97.6859
RA_OF_ASC_NODE = 102.4227
ARG_OF_PERICENTER = 185.6258
MEAN_ANOMALY   = 174.3725

EPHEMERIS_TYPE = 0
CLASSIFICATION_TYPE = U
NORAD_CAT_ID   = 67587
ELEMENT_SET_NO = 999
REV_AT_EPOCH   = 188
BSTAR          = .1362E-2
MEAN_MOTION_DOT = .2751E-3
MEAN_MOTION_DDOT = 0

